[{"OBJECT_NAME":"KEPLER-21","OBJECT_ID":"2023-054AS","EPOCH":"2026-03-09T19:23:14.157600","MEAN_MOTION":15.73096759,"ECCENTRICITY":0.00048854,"INCLINATION":97.2962,"RA_OF_ASC_NODE":342.626,"ARG_OF_PERICENTER":55.6816,"MEAN_ANOMALY":304.491,"EPHEMERIS_TYPE":0,"CLASSIFICATION_TYPE":"U","NORAD_CAT_ID":56218,"ELEMENT_SET_NO":999,"REV_AT_EPOCH":16349,"BSTAR":0.0005813485,"MEAN_MOTION_DOT":0.00079942,"MEAN_MOTION_DDOT":0},{"OBJECT_NAME":"STARLINK-11478 [DTC]","OBJECT_ID":"2025-006D","EPOCH":"2026-03-08T11:46:10.663680","MEAN_MOTION":15.70859024,"ECCENTRICITY":0.00013361,"INCLINATION":42.9997,"RA_OF_ASC_NODE":147.1387,"ARG_OF_PERICENTER":261.2779,"MEAN_ANOMALY":98.7938,"EPHEMERIS_TYPE":0,"CLASSIFICATION_TYPE":"U","NORAD_CAT_ID":62557,"ELEMENT_SET_NO":999,"REV_AT_EPOCH":6641,"BSTAR":0.00067342855,"MEAN_MOTION_DOT":0.00086939,"MEAN_MOTION_DDOT":0}]
