KEPLER-21               
1 56218U 23054AS  26068.80780274  .00079942  00000+0  58135-3 0  9999
2 56218  97.2962 342.6260 0004885  55.6816 304.4910 15.73096759163494
STARLINK-11478 [DTC]    
1 62557U 25006D   26067.49040120  .00086939  00000+0  67343-3 0  9999
2 62557  42.9997 147.1387 0001336 261.2779  98.7938 15.70859024 66417
